IXPE                    
1 49954U 21121A   24061.58334491  .00004496  00000+0  31435-3 0  9999
2 49954   0.2298 110.6223 0010024 126.2011   4.8948 14.96689654  5892
